{
  "type": "FeatureCollection",
  "features": [
    {
      "type": "Feature",
      "properties": {
        "norad_id": 33412,
        "name": "COSMO-SKYMED 3",
        "group": "resource",
        "lat": -67.33462638034791,
        "lon": 11.88579249580108,
        "alt_km": 563.4845892545372,
        "timestamp": "2025-12-26T12:57:38.923618+00:00",
        "meta_object_name": "COSMO-SKYMED 3",
        "meta_object_id": "2008-054A",
        "meta_epoch": "2025-12-26T07:04:32.084256",
        "meta_mean_motion": 15.05468155,
        "meta_eccentricity": 0.00171125,
        "meta_inclination": 97.8451,
        "meta_ra_of_asc_node": 210.9158,
        "meta_arg_of_pericenter": 128.0799,
        "meta_mean_anomaly": 232.1974,
        "meta_ephemeris_type": 0,
        "meta_classification_type": "U",
        "meta_norad_cat_id": 33412,
        "meta_element_set_no": 999,
        "meta_rev_at_epoch": 93091,
        "meta_bstar": 0.00021560933,
        "meta_mean_motion_dot": 3.042e-05,
        "meta_mean_motion_ddot": 0,
        "tle_line1": "1 33412U 08054A   25360.29481579  .00003042  00000+0  21561-3 0  9997",
        "tle_line2": "2 33412  97.8451 210.9158 0017112 128.0799 232.1974 15.05468155930913"
      },
      "geometry": {
        "type": "Point",
        "coordinates": [
          11.88579249580108,
          -67.33462638034791
        ]
      }
    },
    {
      "type": "Feature",
      "properties": {
        "norad_id": 33446,
        "name": "YAOGAN-4",
        "group": "resource",
        "lat": -2.938572398171446,
        "lon": 110.09566015568905,
        "alt_km": 624.3726491992629,
        "timestamp": "2025-12-26T12:57:38.923628+00:00",
        "meta_object_name": "YAOGAN-4",
        "meta_object_id": "2008-061A",
        "meta_epoch": "2025-12-26T05:39:31.954464",
        "meta_mean_motion": 14.82721305,
        "meta_eccentricity": 0.00129545,
        "meta_inclination": 97.9198,
        "meta_ra_of_asc_node": 290.2038,
        "meta_arg_of_pericenter": 275.3518,
        "meta_mean_anomaly": 84.6217,
        "meta_ephemeris_type": 0,
        "meta_classification_type": "U",
        "meta_norad_cat_id": 33446,
        "meta_element_set_no": 999,
        "meta_rev_at_epoch": 92003,
        "meta_bstar": 0.00018765921,
        "meta_mean_motion_dot": 1.463e-05,
        "meta_mean_motion_ddot": 0,
        "tle_line1": "1 33446U 08061A   25360.23578651  .00001463  00000+0  18766-3 0  9992",
        "tle_line2": "2 33446  97.9198 290.2038 0012954 275.3518  84.6217 14.82721305920036"
      },
      "geometry": {
        "type": "Point",
        "coordinates": [
          110.09566015568905,
          -2.938572398171446
        ]
      }
    },
    {
      "type": "Feature",
      "properties": {
        "norad_id": 33492,
        "name": "GOSAT (IBUKI)",
        "group": "resource",
        "lat": -23.06433912485013,
        "lon": -74.5149412639448,
        "alt_km": 674.4527413625119,
        "timestamp": "2025-12-26T12:57:38.923638+00:00",
        "meta_object_name": "GOSAT (IBUKI)",
        "meta_object_id": "2009-002A",
        "meta_epoch": "2025-12-26T07:07:43.621824",
        "meta_mean_motion": 14.67550857,
        "meta_eccentricity": 0.00010366,
        "meta_inclination": 98.0771,
        "meta_ra_of_asc_node": 108.7121,
        "meta_arg_of_pericenter": 105.7066,
        "meta_mean_anomaly": 254.4253,
        "meta_ephemeris_type": 0,
        "meta_classification_type": "U",
        "meta_norad_cat_id": 33492,
        "meta_element_set_no": 999,
        "meta_rev_at_epoch": 90610,
        "meta_bstar": 0.00017141999,
        "meta_mean_motion_dot": 9.24e-06,
        "meta_mean_motion_ddot": 0,
        "tle_line1": "1 33492U 09002A   25360.29703266  .00000924  00000+0  17142-3 0  9995",
        "tle_line2": "2 33492  98.0771 108.7121 0001036 105.7066 254.4253 14.67550857906109"
      },
      "geometry": {
        "type": "Point",
        "coordinates": [
          -74.5149412639448,
          -23.06433912485013
        ]
      }
    },
    {
      "type": "Feature",
      "properties": {
        "norad_id": 35681,
        "name": "DEIMOS-1",
        "group": "resource",
        "lat": -69.95222646537208,
        "lon": -177.68835618545452,
        "alt_km": 653.6165101376928,
        "timestamp": "2025-12-26T12:57:38.923650+00:00",
        "meta_object_name": "DEIMOS-1",
        "meta_object_id": "2009-041A",
        "meta_epoch": "2025-12-26T06:46:18.197184",
        "meta_mean_motion": 14.74972651,
        "meta_eccentricity": 0.00024348,
        "meta_inclination": 97.7158,
        "meta_ra_of_asc_node": 160.2558,
        "meta_arg_of_pericenter": 59.0928,
        "meta_mean_anomaly": 301.052,
        "meta_ephemeris_type": 0,
        "meta_classification_type": "U",
        "meta_norad_cat_id": 35681,
        "meta_element_set_no": 999,
        "meta_rev_at_epoch": 88139,
        "meta_bstar": 0.00013174174,
        "meta_mean_motion_dot": 8.38e-06,
        "meta_mean_motion_ddot": 0,
        "tle_line1": "1 35681U 09041A   25360.28215506  .00000838  00000+0  13174-3 0  9999",
        "tle_line2": "2 35681  97.7158 160.2558 0002434  59.0928 301.0520 14.74972651881391"
      },
      "geometry": {
        "type": "Point",
        "coordinates": [
          -177.68835618545452,
          -69.95222646537208
        ]
      }
    },
    {
      "type": "Feature",
      "properties": {
        "norad_id": 35682,
        "name": "DUBAISAT-1",
        "group": "resource",
        "lat": -26.658117363860168,
        "lon": -53.0209133180954,
        "alt_km": 648.5776801989368,
        "timestamp": "2025-12-26T12:57:38.923661+00:00",
        "meta_object_name": "DUBAISAT-1",
        "meta_object_id": "2009-041B",
        "meta_epoch": "2025-12-26T07:08:21.734592",
        "meta_mean_motion": 14.7464095,
        "meta_eccentricity": 0.00092527,
        "meta_inclination": 97.9798,
        "meta_ra_of_asc_node": 130.7784,
        "meta_arg_of_pericenter": 265.5902,
        "meta_mean_anomaly": 94.4249,
        "meta_ephemeris_type": 0,
        "meta_classification_type": "U",
        "meta_norad_cat_id": 35682,
        "meta_element_set_no": 999,
        "meta_rev_at_epoch": 87961,
        "meta_bstar": 0.00022198652,
        "meta_mean_motion_dot": 1.431e-05,
        "meta_mean_motion_ddot": 0,
        "tle_line1": "1 35682U 09041B   25360.29747378  .00001431  00000+0  22199-3 0  9995",
        "tle_line2": "2 35682  97.9798 130.7784 0009252 265.5902  94.4249 14.74640950879615"
      },
      "geometry": {
        "type": "Point",
        "coordinates": [
          -53.0209133180954,
          -26.658117363860168
        ]
      }
    },
    {
      "type": "Feature",
      "properties": {
        "norad_id": 35931,
        "name": "OCEANSAT-2",
        "group": "resource",
        "lat": -79.5765112337652,
        "lon": 127.93210475076592,
        "alt_km": 905.4384720320004,
        "timestamp": "2025-12-26T12:57:38.923672+00:00",
        "meta_object_name": "OCEANSAT-2",
        "meta_object_id": "2009-051A",
        "meta_epoch": "2025-12-26T06:33:26.788608",
        "meta_mean_motion": 13.99622996,
        "meta_eccentricity": 0.00158763,
        "meta_inclination": 98.2218,
        "meta_ra_of_asc_node": 359.5005,
        "meta_arg_of_pericenter": 9.4534,
        "meta_mean_anomaly": 350.6928,
        "meta_ephemeris_type": 0,
        "meta_classification_type": "U",
        "meta_norad_cat_id": 35931,
        "meta_element_set_no": 999,
        "meta_rev_at_epoch": 85514,
        "meta_bstar": 3.4766382e-05,
        "meta_mean_motion_dot": 1.3e-07,
        "meta_mean_motion_ddot": 0,
        "tle_line1": "1 35931U 09051A   25360.27322672  .00000013  00000+0  34766-4 0  9996",
        "tle_line2": "2 35931  98.2218 359.5005 0015876   9.4534 350.6928 13.99622996855144"
      },
      "geometry": {
        "type": "Point",
        "coordinates": [
          127.93210475076592,
          -79.5765112337652
        ]
      }
    },
    {
      "type": "Feature",
      "properties": {
        "norad_id": 35946,
        "name": "WORLDVIEW-2 (WV-2)",
        "group": "resource",
        "lat": 62.83311220913202,
        "lon": -91.67081875733854,
        "alt_km": 759.260865825946,
        "timestamp": "2025-12-26T12:57:38.923683+00:00",
        "meta_object_name": "WORLDVIEW-2 (WV-2)",
        "meta_object_id": "2009-055A",
        "meta_epoch": "2025-12-26T05:44:35.425824",
        "meta_mean_motion": 14.37729954,
        "meta_eccentricity": 0.00046562,
        "meta_inclination": 98.4771,
        "meta_ra_of_asc_node": 71.1384,
        "meta_arg_of_pericenter": 37.1451,
        "meta_mean_anomaly": 323.0057,
        "meta_ephemeris_type": 0,
        "meta_classification_type": "U",
        "meta_norad_cat_id": 35946,
        "meta_element_set_no": 999,
        "meta_rev_at_epoch": 85079,
        "meta_bstar": 7.4193775e-05,
        "meta_mean_motion_dot": 1.8e-06,
        "meta_mean_motion_ddot": 0,
        "tle_line1": "1 35946U 09055A   25360.23929891  .00000180  00000+0  74194-4 0  9992",
        "tle_line2": "2 35946  98.4771  71.1384 0004656  37.1451 323.0057 14.37729954850791"
      },
      "geometry": {
        "type": "Point",
        "coordinates": [
          -91.67081875733854,
          62.83311220913202
        ]
      }
    }
  ]
}